{"type": "FeatureCollection", "features": [ {"type": "Feature", "properties": {"norad_id": 28649, "name": "IRS-P5 (CARTOSAT-1)", "group": "resource", "lat": -68.88787981017184, "lon": -174.7534572044792, "alt_km": 604.1792469745242, "timestamp": "2025-12-25T11:37:44.078178+00:00", "meta": {"OBJECT_NAME": "IRS-P5 (CARTOSAT-1)", "OBJECT_ID": "2005-017A", "EPOCH": "2025-12-25T02:27:12.423168", "MEAN_MOTION": 14.90444639, "ECCENTRICITY": 5.06e-05, "INCLINATION": 97.5483, "RA_OF_ASC_NODE": 24.9669, "ARG_OF_PERICENTER": 63.7048, "MEAN_ANOMALY": 296.4223, "EPHEMERIS_TYPE": 0, "CLASSIFICATION_TYPE": "U", "NORAD_CAT_ID": 28649, "ELEMENT_SET_NO": 999, "REV_AT_EPOCH": 11788, "BSTAR": 0.00017428, "MEAN_MOTION_DOT": 1.647e-05, "MEAN_MOTION_DDOT": 0}, "tle": {"line1": "1 28649U 05017A   25359.10222712  .00001647  00000+0  17428-3 0  9995", "line2": "2 28649  97.5483  24.9669 0000506  63.7048 296.4223 14.90444639117889"}}, "geometry": {"type": "Point", "coordinates": [-174.7534572044792, -68.88787981017184]}}, {"type": "Feature", "properties": {"norad_id": 28893, "name": "SINAH 1", "group": "resource", "lat": 66.32404416035594, "lon": -32.57339533247479, "alt_km": 663.0498026835994, "timestamp": "2025-12-25T11:37:44.078188+00:00", "meta": {"OBJECT_NAME": "SINAH 1", "OBJECT_ID": "2005-043D", "EPOCH": "2025-12-25T02:55:02.496288", "MEAN_MOTION": 14.63975075, "ECCENTRICITY": 0.0015725, "INCLINATION": 98.2609, "RA_OF_ASC_NODE": 127.7124, "ARG_OF_PERICENTER": 100.9037, "MEAN_ANOMALY": 259.3935, "EPHEMERIS_TYPE": 0, "CLASSIFICATION_TYPE": "U", "NORAD_CAT_ID": 28893, "ELEMENT_SET_NO": 999, "REV_AT_EPOCH": 7505, "BSTAR": 9.6921e-05, "MEAN_MOTION_DOT": 4.59e-06, "MEAN_MOTION_DDOT": 0}, "tle": {"line1": "1 28893U 05043D   25359.12155667  .00000459  00000+0  96921-4 0  9997", "line2": "2 28893  98.2609 127.7124 0015725 100.9037 259.3935 14.63975075 75050"}}, "geometry": {"type": "Point", "coordinates": [-32.57339533247479, 66.32404416035594]}}, {"type": "Feature", "properties": {"norad_id": 29079, "name": "EROS B", "group": "resource", "lat": -48.32077191039705, "lon": 125.03364807829928, "alt_km": 355.71835279256175, "timestamp": "2025-12-25T11:37:44.078199+00:00", "meta": {"OBJECT_NAME": "EROS B", "OBJECT_ID": "2006-014A", "EPOCH": "2025-12-25T05:43:36.950304", "MEAN_MOTION": 15.7238717, "ECCENTRICITY": 0.0004405, "INCLINATION": 97.345, "RA_OF_ASC_NODE": 116.4438, "ARG_OF_PERICENTER": 312.4359, "MEAN_ANOMALY": 47.6532, "EPHEMERIS_TYPE": 0, "CLASSIFICATION_TYPE": "U", "NORAD_CAT_ID": 29079, "ELEMENT_SET_NO": 999, "REV_AT_EPOCH": 9276, "BSTAR": 0.0016088, "MEAN_MOTION_DOT": 0.00218424, "MEAN_MOTION_DDOT": 0}, "tle": {"line1": "1 29079U 06014A   25359.23862211  .00218424  00000+0  16088-2 0  9992", "line2": "2 29079  97.3450 116.4438 0004405 312.4359  47.6532 15.72387170 92766"}}, "geometry": {"type": "Point", "coordinates": [125.03364807829928, -48.32077191039705]}}, {"type": "Feature", "properties": {"norad_id": 29228, "name": "RESURS-DK 1", "group": "resource", "lat": 63.031305507934725, "lon": -157.0189403192478, "alt_km": 526.2101515211234, "timestamp": "2025-12-25T11:37:44.078210+00:00", "meta": {"OBJECT_NAME": "RESURS-DK 1", "OBJECT_ID": "2006-021A", "EPOCH": "2025-12-24T14:30:47.970432", "MEAN_MOTION": 15.12224408, "ECCENTRICITY": 0.00068986, "INCLINATION": 69.9337, "RA_OF_ASC_NODE": 71.174, "ARG_OF_PERICENTER": 248.2576, "MEAN_ANOMALY": 111.7856, "EPHEMERIS_TYPE": 0, "CLASSIFICATION_TYPE": "U", "NORAD_CAT_ID": 29228, "ELEMENT_SET_NO": 999, "REV_AT_EPOCH": 7617, "BSTAR": 0.00017407091, "MEAN_MOTION_DOT": 2.909e-05, "MEAN_MOTION_DDOT": 0}, "tle": {"line1": "1 29228U 06021A   25358.60472188  .00002909  00000+0  17407-3 0  9992", "line2": "2 29228  69.9337  71.1740 0006898 248.2576 111.7856 15.12224408 76176"}}, "geometry": {"type": "Point", "coordinates": [-157.0189403192478, 63.031305507934725]}}, {"type": "Feature", "properties": {"norad_id": 29268, "name": "ARIRANG-2 (KOMPSAT-2)", "group": "resource", "lat": 41.02486731012755, "lon": -179.5364183410016, "alt_km": 682.1101411703412, "timestamp": "2025-12-25T11:37:44.078221+00:00", "meta": {"OBJECT_NAME": "ARIRANG-2 (KOMPSAT-2)", "OBJECT_ID": "2006-031A", "EPOCH": "2025-12-25T05:08:47.442336", "MEAN_MOTION": 14.64503804, "ECCENTRICITY": 0.0013138, "INCLINATION": 97.8256, "RA_OF_ASC_NODE": 187.0791, "ARG_OF_PERICENTER": 266.1935, "MEAN_ANOMALY": 152.114, "EPHEMERIS_TYPE": 0, "CLASSIFICATION_TYPE": "U", "NORAD_CAT_ID": 29268, "ELEMENT_SET_NO": 999, "REV_AT_EPOCH": 3601, "BSTAR": 5.5938e-05, "MEAN_MOTION_DOT": 2.52e-06, "MEAN_MOTION_DDOT": 0}, "tle": {"line1": "1 29268U 06031A   25359.21443799  .00000252  00000+0  55938-4 0  9992", "line2": "2 29268  97.8256 187.0791 0013138 266.1935 152.1140 14.64503804 36016"}}, "geometry": {"type": "Point", "coordinates": [-179.5364183410016, 41.02486731012755]}}, {"type": "Feature", "properties": {"norad_id": 29709, "name": "LAPAN-TUBSAT", "group": "resource", "lat": -46.26451633177843, "lon": 161.3148231712176, "alt_km": 627.2852931731213, "timestamp": "2025-12-25T11:37:44.078231+00:00", "meta": {"OBJECT_NAME": "LAPAN-TUBSAT", "OBJECT_ID": "2007-001A", "EPOCH": "2025-12-25T05:45:44.190720", "MEAN_MOTION": 14.85687563, "ECCENTRICITY": 0.0013201, "INCLINATION": 98.1264, "RA_OF_ASC_NODE": 349.6539, "ARG_OF_PERICENTER": 36.929, "MEAN_ANOMALY": 323.2831, "EPHEMERIS_TYPE": 0, "CLASSIFICATION_TYPE": "U", "NORAD_CAT_ID": 29709, "ELEMENT_SET_NO": 999, "REV_AT_EPOCH": 2532, "BSTAR": 4.1708e-05, "MEAN_MOTION_DOT": 3.05e-06, "MEAN_MOTION_DDOT": 0}, "tle": {"line1": "1 29709U 07001A   25359.24009480  .00000305  00000+0  41708-4 0  9997", "line2": "2 29709  98.1264 349.6539 0013201  36.9290 323.2831 14.85687563 25321"}}, "geometry": {"type": "Point", "coordinates": [161.3148231712176, -46.26451633177843]}}, {"type": "Feature", "properties": {"norad_id": 31113, "name": "HAIYANG-1B", "group": "resource", "lat": 53.554805323874554, "lon": 174.68430073194253, "alt_km": 788.8960347244665, "timestamp": "2025-12-25T11:37:44.078245+00:00", "meta": {"OBJECT_NAME": "HAIYANG-1B", "OBJECT_ID": "2007-010A", "EPOCH": "2025-12-24T19:56:29.461920", "MEAN_MOTION": 14.30968874, "ECCENTRICITY": 0.00136155, "INCLINATION": 98.3329, "RA_OF_ASC_NODE": 342.6102, "ARG_OF_PERICENTER": 3.3672, "MEAN_ANOMALY": 356.7601, "EPHEMERIS_TYPE": 0, "CLASSIFICATION_TYPE": "U", "NORAD_CAT_ID": 31113, "ELEMENT_SET_NO": 999, "REV_AT_EPOCH": 97569, "BSTAR": 5.8199808e-05, "MEAN_MOTION_DOT": 1.12e-06, "MEAN_MOTION_DDOT": 0}, "tle": {"line1": "1 31113U 07010A   25358.83089655  .00000112  00000+0  58200-4 0  9996", "line2": "2 31113  98.3329 342.6102 0013615   3.3672 356.7601 14.30968874975694"}}, "geometry": {"type": "Point", "coordinates": [174.68430073194253, 53.554805323874554]}}, {"type": "Feature", "properties": {"norad_id": 31598, "name": "COSMO-SKYMED 1", "group": "resource", "lat": -71.47997183723663, "lon": -150.59670889536187, "alt_km": 587.7644347022715, "timestamp": "2025-12-25T11:37:44.078259+00:00", "meta": {"OBJECT_NAME": "COSMO-SKYMED 1", "OBJECT_ID": "2007-023A", "EPOCH": "2025-12-25T03:55:42.924000", "MEAN_MOTION": 14.95856019, "ECCENTRICITY": 0.0001256, "INCLINATION": 97.884, "RA_OF_ASC_NODE": 184.6451, "ARG_OF_PERICENTER": 77.5669, "MEAN_ANOMALY": 282.5692, "EPHEMERIS_TYPE": 0, "CLASSIFICATION_TYPE": "U", "NORAD_CAT_ID": 31598, "ELEMENT_SET_NO": 999, "REV_AT_EPOCH": 376, "BSTAR": 0.00030031, "MEAN_MOTION_DOT": 3.297e-05, "MEAN_MOTION_DDOT": 0}, "tle": {"line1": "1 31598U 07023A   25359.16369125  .00003297  00000+0  30031-3 0  9995", "line2": "2 31598  97.8840 184.6451 0001256  77.5669 282.5692 14.95856019  3765"}}, "geometry": {"type": "Point", "coordinates": [-150.59670889536187, -71.47997183723663]}}, {"type": "Feature", "properties": {"norad_id": 31698, "name": "TERRASAR-X", "group": "resource", "lat": -67.37790992257172, "lon": 22.965857056345673, "alt_km": 516.7039113043629, "timestamp": "2025-12-25T11:37:44.078269+00:00", "meta": {"OBJECT_NAME": "TERRASAR-X", "OBJECT_ID": "2007-026A", "EPOCH": "2025-12-24T13:47:55.330080", "MEAN_MOTION": 15.19151427, "ECCENTRICITY": 0.00018153, "INCLINATION": 97.4444, "RA_OF_ASC_NODE": 3.7823, "ARG_OF_PERICENTER": 79.9991, "MEAN_ANOMALY": 280.1449, "EPHEMERIS_TYPE": 0, "CLASSIFICATION_TYPE": "U", "NORAD_CAT_ID": 31698, "ELEMENT_SET_NO": 999, "REV_AT_EPOCH": 2671, "BSTAR": 4.8169766e-05, "MEAN_MOTION_DOT": 9.45e-06, "MEAN_MOTION_DDOT": 0}, "tle": {"line1": "1 31698U 07026A   25358.57494595  .00000945  00000+0  48170-4 0  9994", "line2": "2 31698  97.4444   3.7823 0001815  79.9991 280.1449 15.19151427 26713"}}, "geometry": {"type": "Point", "coordinates": [22.965857056345673, -67.37790992257172]}}, {"type": "Feature", "properties": {"norad_id": 32060, "name": "WORLDVIEW-1 (WV-1)", "group": "resource", "lat": 7.92306980131983, "lon": -62.18749516036067, "alt_km": 498.08015674272247, "timestamp": "2025-12-25T11:37:44.078279+00:00", "meta": {"OBJECT_NAME": "WORLDVIEW-1 (WV-1)", "OBJECT_ID": "2007-041A", "EPOCH": "2025-12-25T01:25:18.755040", "MEAN_MOTION": 15.23954697, "ECCENTRICITY": 0.000316, "INCLINATION": 97.3824, "RA_OF_ASC_NODE": 116.3599, "ARG_OF_PERICENTER": 355.3843, "MEAN_ANOMALY": 4.7365, "EPHEMERIS_TYPE": 0, "CLASSIFICATION_TYPE": "U", "NORAD_CAT_ID": 32060, "ELEMENT_SET_NO": 999, "REV_AT_EPOCH": 1635, "BSTAR": 0.00035344, "MEAN_MOTION_DOT": 8.482e-05, "MEAN_MOTION_DDOT": 0}, "tle": {"line1": "1 32060U 07041A   25359.05924485  .00008482  00000+0  35344-3 0  9997", "line2": "2 32060  97.3824 116.3599 0003160 355.3843   4.7365 15.23954697 16352"}}, "geometry": {"type": "Point", "coordinates": [-62.18749516036067, 7.92306980131983]}}]}